JY1SAT (JO-97)          
1 43803U 18099AX  26068.68634132  .00017774  00000+0  60804-3 0  9996
2 43803  97.4249 131.3625 0004723 256.6795 103.3919 15.30302628398390
STARLINK-34247          
1 65083U 25167F   26068.28816471  .00039266  00000+0  13333-2 0  9992
2 65083  53.1607  26.0683 0001131 114.2157 245.8962 15.30140319 33456
